1 27842U 03031C   14249.24760653  .00000108  00000-0  68962-4 0   448
2 27842  98.6883 256.5679 0009441  23.9401  34.6621 14.21711902580232
1 27842U 03031C   14250.46456859  .00000129  00000-0  78597-4 0   453
2 27842  98.6884 257.7662 0009369  20.4200 143.2746 14.21712474580405
1 27842U 03031C   14251.51159627  .00000144  00000-0  85419-4 0   462
2 27842  98.6885 258.7972 0009291  17.4208 102.1076 14.21712815580554
1 27842U 03031C   14252.63697418  .00000187  00000-0  10478-3 0   471
2 27842  98.6886 259.9053 0009197  14.1489 101.9983 14.21713312580713
1 27842U 03031C   14253.83480444  .00000219  00000-0  11953-3 0   489
2 27842  98.6888 261.0848 0009149  10.6482 112.7347 14.21713914580882
1 27842U 03031C   14255.01851354  .00000257  00000-0  13673-3 0   497
2 27842  98.6888 262.2503 0009052   7.1824  51.2034 14.21714966581055
1 27842U 03031C   14256.78315815  .00000259  00000-0  13789-3 0   501
2 27842  98.6887 263.9881 0008969   2.0264  83.0208 14.21716173581305
1 27842U 03031C   14257.97465546  .00000241  00000-0  12967-3 0   519
2 27842  98.6885 265.1616 0008898 358.4903  61.4088 14.21716684581473
1 27842U 03031C   14259.03082795  .00000228  00000-0  12348-3 0   528
2 27842  98.6884 266.2017 0008803 355.2079  67.3209 14.21717296581621
1 27842U 03031C   14260.45841096  .00000250  00000-0  13357-3 0   530
2 27842  98.6883 267.6077 0008764 350.9775 174.0570 14.21718136581825
1 27842U 03031C   14261.50575685  .00000230  00000-0  12451-3 0   548
2 27842  98.6882 268.6391 0008708 347.7754 134.7423 14.21718812581970
1 27842U 03031C   14263.82850969  .00000176  00000-0  99996-4 0   668
2 27842  98.6881 270.9264 0008596 340.5549 143.5388 14.21720591582305
1 27842U 03031C   14265.01115153  .00000161  00000-0  92934-4 0   670
2 27842  98.6882 272.0908 0008552 336.9141  76.7519 14.21720890582476
1 27842U 03031C   14266.91505552  .00000144  00000-0  85537-4 0   690
2 27842  98.6884 273.9652 0008436 330.7591 101.9571 14.21722021582743
1 27842U 03031C   14266.98140470  .00000144  00000-0  85440-4 0   706
2 27842  98.6884 274.0306 0008442 330.6178  81.4947 14.21722075582757
1 27842U 03031C   14269.02360326  .00000231  00000-0  12505-3 0   728
2 27842  98.6886 276.0415 0008362 324.0874  94.5054 14.21723151583046
1 27842U 03031C   14270.44040148  .00000290  00000-0  15182-3 0   733
2 27842  98.6887 277.4365 0008293 319.3133 146.6476 14.21724150583243
1 27842U 03031C   14271.50704977  .00000315  00000-0  16325-3 0   747
2 27842  98.6887 278.4869 0008264 315.7533 206.4515 14.21724696583395
1 27842U 03031C   14273.82223499  .00000209  00000-0  11518-3 0   751
2 27842  98.6884 280.7669 0008217 308.4581 176.6655 14.21726705583729
1 27842U 03031C   14275.00459051  .00000328  00000-0  16889-3 0   767
2 27842  98.6882 281.9313 0008191 304.6786 108.5803 14.21727947583898
1 27842U 03031C   14276.50383524  .00000307  00000-0  15954-3 0   774
2 27842  98.6880 283.4076 0008158 299.6644 222.7268 14.21729275584103
1 27842U 03031C   14277.55075154  .00000271  00000-0  14311-3 0   784
2 27842  98.6880 284.4384 0008147 296.1510 181.5683 14.21730466584251
1 27842U 03031C   14279.01723363  .00000253  00000-0  13500-3 0   799
2 27842  98.6880 285.8823 0008140 291.2291 128.0467 14.21731862584469
1 27842U 03031C   14280.50822788  .00000279  00000-0  14677-3 0   802
2 27842  98.6881 287.3502 0008135 286.1976 200.0287 14.21732751584670
1 27842U 03031C   14281.84459612  .00000274  00000-0  14435-3 0   810
2 27842  98.6883 288.6660 0008144 281.9181 200.2987 14.21733668584860
1 27842U 03031C   14283.02896948  .00000170  00000-0  97377-4 0   822
2 27842  98.6884 289.8322 0008153 277.9492 142.7543 14.21735227585030
1 27842U 03031C   14284.58811061  .00000194  00000-0  10825-3 0   836
2 27842  98.6884 291.3674 0008161 272.8818 203.3862 14.21735831585256
1 27842U 03031C   14285.64440558  .00000308  00000-0  16007-3 0   849
2 27842  98.6883 292.4075 0008158 269.5174 210.0785 14.21736263585402
1 27842U 03031C   14287.04224683  .00000149  00000-0  87872-4 0   857
2 27842  98.6882 293.7841 0008193 264.9841 165.0748 14.21737361585605
1 27842U 03031C   14288.60080992  .00000133  00000-0  80454-4 0   866
2 27842  98.6879 295.3189 0008228 259.8958 222.7831 14.21738425585825
1 27842U 03031C   14289.99470064  .00000201  00000-0  11130-3 0   873
2 27842  98.6877 296.6915 0008266 255.3569 157.5878 14.21738936586021
1 27842U 03031C   14291.49227520  .00000093  00000-0  61964-4 0   889
2 27842  98.6875 298.1660 0008316 250.4928 263.0997 14.21740506586238
1 27842U 03031C   14292.61076332  .00000430  00000-0  21541-3 0   899
2 27842  98.6875 299.2672 0008353 246.9814 228.0983 14.21741336586393
1 27842U 03031C   14294.00625686  .00000474  00000-0  23554-3 0   902
2 27842  98.6875 300.6411 0008404 242.5018 171.0568 14.21742539586590
1 27842U 03031C   14295.50369417  .00000387  00000-0  19573-3 0   915
2 27842  98.6876 302.1153 0008467 237.6246 275.8994 14.21744019586803
1 27842U 03031C   14296.62232269  .00000390  00000-0  19741-3 0   925
2 27842  98.6878 303.2165 0008526 234.2992 241.4448 14.21745080586966
1 27842U 03031C   14298.01936144  .00000482  00000-0  23920-3 0   930
2 27842  98.6879 304.5920 0008587 230.0191 192.1282 14.21746108587165
1 27842U 03031C   14299.51509159  .00000427  00000-0  21382-3 0   948
2 27842  98.6879 306.0646 0008663 225.4720 287.9286 14.21747994587372
1 27842U 03031C   14301.04716350  .00000384  00000-0  19444-3 0   952
2 27842  98.6878 307.5732 0008740 220.7054 209.8598 14.21749924587595
1 27842U 03031C   14303.01433398  .00000313  00000-0  16207-3 0   966
2 27842  98.6875 309.5103 0008832 214.8426 198.6095 14.21751428587875
1 27842U 03031C   14304.51155503  .00000311  00000-0  16107-3 0   979
2 27842  98.6872 310.9845 0008924 210.1477 302.2115 14.21752731588086
1 27842U 03031C   14305.62994435  .00000271  00000-0  14313-3 0   980
2 27842  98.6869 312.0857 0008993 206.7467 266.6427 14.21753708588246
1 27842U 03031C   14306.95604256  .00000229  00000-0  12384-3 0   996
2 27842  98.6869 313.3912 0009059 202.8564 214.0878 14.21754434588436
1 27842U 03031C   14308.51717918  .00000216  00000-0  11823-3 0  1006
2 27842  98.6868 314.9280 0009150 198.2243 284.5992 14.21755850588650
1 27842U 03031C   14309.64302714  .00000208  00000-0  11421-3 0  1011
2 27842  98.6870 316.0364 0009218 194.9776 287.0434 14.21757181588814
1 27842U 03031C   14311.03951252  .00000268  00000-0  14150-3 0  1023
2 27842  98.6873 317.4110 0009258 191.1705 234.4822 14.21758205589014
1 27842U 03031C   14312.52893044  .00000300  00000-0  15622-3 0  1035
2 27842  98.6875 318.8771 0009345 186.8608 297.8214 14.21759170589227
1 27842U 03031C   14313.99281447  .00000327  00000-0  16847-3 0  1045
2 27842  98.6875 320.3184 0009411 182.7789 230.3191 14.21760675589433
1 27842U 03031C   14315.49035943  .00000277  00000-0  14575-3 0  1051
2 27842  98.6874 321.7929 0009534 178.4947 335.2176 14.21762242589641
1 27842U 03031C   14316.82195750  .00000291  00000-0  15192-3 0  1065
2 27842  98.6872 323.1040 0009610 174.7678 310.6758 14.21763089589838
1 27842U 03031C   14317.87632126  .00000282  00000-0  14789-3 0  1076
2 27842  98.6870 324.1422 0009658 171.8608 307.1368 14.21763771589986
1 27842U 03031C   14319.97021131  .00000265  00000-0  14042-3 0  1081
2 27842  98.6866 326.2037 0009723 166.1726 224.0358 14.21767365590281
1 27842U 03031C   14321.81862532  .00000444  00000-0  22135-3 0  1097
2 27842  98.6865 328.0234 0009813 161.0811 324.6375 14.21769029590542
1 27842U 03031C   14322.87295494  .00000415  00000-0  20848-3 0  1100
2 27842  98.6865 329.0612 0009861 158.2163 320.9014 14.21769910590698
1 27842U 03031C   14323.98594104  .00000321  00000-0  16579-3 0  1116
2 27842  98.6865 330.1568 0009922 155.2461 257.3280 14.21771199590855
1 27842U 03031C   14325.82963083  .00000275  00000-0  14485-3 0  1120
2 27842  98.6868 331.9716 0010002 150.2857 333.6594 14.21773167591110
1 27842U 03031C   14327.08023701  .00000272  00000-0  14346-3 0  1138
2 27842  98.6869 333.2026 0010062 146.9608 254.4512 14.21774008591296
1 27842U 03031C   14328.50961385  .00000272  00000-0  14360-3 0  1142
2 27842  98.6870 334.6097 0010120 143.1701  10.2134 14.21775115591499
1 27842U 03031C   14329.55828442  .00000319  00000-0  16477-3 0  1158
2 27842  98.6869 335.6420 0010172 140.4057 337.4518 14.21776006591646
1 27842U 03031C   14330.81713963  .00000297  00000-0  15493-3 0  1163
2 27842  98.6869 336.8813 0010195 137.0404 300.4968 14.21777322591829
1 27842U 03031C   14332.07580025  .00000377  00000-0  19111-3 0  1175
2 27842  98.6866 338.1206 0010219 133.6623 262.5643 14.21778152592000
1 27842U 03031C   14333.50588256  .00000428  00000-0  21435-3 0  1188
2 27842  98.6864 339.5285 0010224 129.8150  22.0141 14.21779848592205
1 27842U 03031C   14334.55446694  .00000422  00000-0  21139-3 0  1199
2 27842  98.6862 340.5607 0010262 127.1517 348.7287 14.21781238592354
1 27842U 03031C   14335.61559427  .00000434  00000-0  21673-3 0  1204
2 27842  98.6861 341.6054 0010292 124.4446  19.6564 14.21782466592508
1 27842U 03031C   14337.00683262  .00000335  00000-0  17198-3 0  1212
2 27842  98.6860 342.9748 0010322 120.9070 300.1119 14.21784235592701
1 27842U 03031C   14338.50271799  .00000294  00000-0  15339-3 0  1226
2 27842  98.6862 344.4473 0010346 117.0647  36.2033 14.21785798592918
1 27842U 03031C   14340.03349359  .00000279  00000-0  14655-3 0  1239
2 27842  98.6864 345.9541 0010351 113.0776 310.9320 14.21787049593134
1 27842U 03031C   14341.24251653  .00000263  00000-0  13907-3 0  1245
2 27842  98.6866 347.1441 0010365 109.9626  18.8554 14.21788397593301
1 27842U 03031C   14342.51588289  .00000238  00000-0  12796-3 0  1252
2 27842  98.6867 348.3976 0010360 106.5754  56.2069 14.21788949593487
1 27842U 03031C   14343.76066522  .00000221  00000-0  12028-3 0  1262
2 27842  98.6867 349.6231 0010370 103.5463 306.9818 14.21789934593662
1 27842U 03031C   14345.02964983  .00000233  00000-0  12577-3 0  1274
2 27842  98.6867 350.8724 0010358 100.1362 321.9507 14.21790375593843
